[{"OBJECT_NAME":"GEOSCAN 3 (RS92S3)","OBJECT_ID":"2025-155T","EPOCH":"2026-03-09T22:52:10.587648","MEAN_MOTION":15.31696739,"ECCENTRICITY":0.00068078,"INCLINATION":97.4455,"RA_OF_ASC_NODE":37.9971,"ARG_OF_PERICENTER":154.1387,"MEAN_ANOMALY":206.0196,"EPHEMERIS_TYPE":0,"CLASSIFICATION_TYPE":"U","NORAD_CAT_ID":64893,"ELEMENT_SET_NO":999,"REV_AT_EPOCH":6564,"BSTAR":0.00078414081,"MEAN_MOTION_DOT":0.00023985,"MEAN_MOTION_DDOT":0},{"OBJECT_NAME":"STARLINK-35642","OBJECT_ID":"2025-257U","EPOCH":"2026-03-09T15:35:21.768864","MEAN_MOTION":15.30190026,"ECCENTRICITY":0.0001058,"INCLINATION":53.1586,"RA_OF_ASC_NODE":217.4734,"ARG_OF_PERICENTER":94.1495,"MEAN_ANOMALY":265.9627,"EPHEMERIS_TYPE":0,"CLASSIFICATION_TYPE":"U","NORAD_CAT_ID":66398,"ELEMENT_SET_NO":999,"REV_AT_EPOCH":1972,"BSTAR":0.0005005,"MEAN_MOTION_DOT":0.00014489,"MEAN_MOTION_DDOT":0}]
